1 34141U 93036LN  18212.98487065  .00000479  00000-0  19700-3 0  9995
2 34141  74.0181 274.2457 0074055 278.4015 144.7443 14.28257417491401
1 34142U 93036LP  18212.97638472  .00000446  00000-0  82908-4 0  9990
2 34142  73.9934 270.4041 0048283  31.6430  29.7881 14.67584699503261
1 34143U 97051DW  18213.12556757  .00001276  00000-0  25602-3 0  9994
2 34143  86.3909  92.0789 0005523 135.2898  17.9614 14.60962486498553
1 34145U 97051DY  18213.00778216  .00000444  00000-0  16637-3 0  9993
2 34145  86.2165  68.8124 0063131 177.8442 182.3035 14.28313539491424
1 34146U 97051DZ  18212.81975878  .00000220  00000-0  68360-4 0  9998
2 34146  86.2871  78.0813 0039661  51.2335  75.4388 14.35967759494102
1 34147U 97051EA  18212.72413962 +.00004056 +00000-0 +53514-3 0  9995
2 34147 086.4349 123.9742 0056590 215.1304 144.6180 14.78695092497694
1 34148U 97051EB  18212.89029997 +.00003658 +00000-0 +25733-3 0  9994
2 34148 086.3863 063.8231 0012453 064.2179 296.0339 15.04704600503145
1 34150U 97051ED  18213.12988692  .00002861  00000-0  60584-3 0  9998
2 34150  86.4841 153.5795 0093568 339.7040  80.7398 14.56192322495927
1 34155U 97051EJ  18212.25494339 +.00002137 +00000-0 +42026-3 0  9993
2 34155 086.4670 134.2386 0051832 176.8013 336.5258 14.61305419497100
1 34159U 97051EN  18212.91793688 +.00000206 +00000-0 +67811-4 0  9994
2 34159 086.3534 106.7355 0033389 063.2214 297.2390 14.32747972493895
1 34160U 97051EP  18213.27267912  .00001595  00000-0  34545-3 0  9991
2 34160  86.4088 113.7848 0037179 299.6713  60.0795 14.57188980496441
1 34185U 92072R   18191.20529765 -.00000617  00000-0 -24253-2 0  9991
2 34185   7.9544 342.6543 7067063 313.7299   6.0689  2.41410495110902
1 34189U 92072V   18064.49344774  .00001912  00000-0  76887-1 0  9996
2 34189   5.3526 352.5780 6510270 131.9856  23.9822  2.90669687133479
1 34191U 92072X   18213.05261416 -.00000071  00000-0 -76284-3 0  9998
2 34191   7.7792 281.8367 6513045 253.0040  39.8451  2.91987734137680
1 34195U 92072AB  18212.70972382 -.00000078  00000-0  18799-3 0  9997
2 34195   5.6501  44.6735 6574425  66.2969  78.6387  2.94658015131274
1 34196U 92072AC  18189.66575546 -.00000078 +00000-0 -57972-2 0  9993
2 34196 007.6488 081.7831 6455887 306.8769 256.6476 02.90582454124167
1 34201U 97070L   13223.53985288 +.01963372 +00000-0 +24252+0 0  9997
2 34201 046.4116 302.8662 4128994 242.4135 070.0282 07.13308270015522
1 34204U 99057RF  18212.38609665  .00010929  00000-0  59496-3 0  9997
2 34204  98.2122 266.3958 0001597  63.8004 296.3390 15.14635964545326
1 34205U 99057RG  10131.35741025 +.00008397 +00000-0 +19700-2 0  9993
2 34205 098.4941 175.7095 0009459 071.8579 289.9205 14.54707145129105
1 34207U 99057RJ  18212.56917202 +.00002367 +00000-0 +31059-3 0  9991
2 34207 098.3008 250.1184 0014381 209.1879 150.8530 14.81239714557076
1 34208U 99057RK  18213.28751669  .00002854  00000-0  30982-3 0  9990
2 34208  98.2813 245.3874 0008475 126.5205 233.6792 14.88976813560006
1 34209U 99057RL  18213.19266591  .00001797  00000-0  30166-3 0  9995
2 34209  98.3251 212.9748 0004864 215.2131 144.8753 14.70969872565166
1 34211U 99057RN  18213.21468355  .00000347  00000-0  80273-4 0  9998
2 34211  98.4493 212.2264 0075324 285.2620  74.0261 14.60003446812510
1 34213U 99057RQ  18212.87747865 +.00001821 +00000-0 +26676-3 0  9991
2 34213 098.2881 228.7464 0011204 112.1427 009.0612 14.76857656560442
1 34214U 99057RR  18212.40729138 +.00009246 +00000-0 +55654-3 0  9991
2 34214 098.2118 282.1157 0001704 101.6592 258.4827 15.11073244572803
1 34215U 99057RS  18212.90440155  .00001070  00000-0  23179-3 0  9990
2 34215  98.3728 190.2705 0006303 350.7508   9.3574 14.60252672557109
1 34216U 99057RT  14043.15707469 +.00004570 +00000-0 +45308-3 0  9996
2 34216 098.1287 171.2447 0004596 219.1376 264.7215 14.92312977342733
1 34217U 99057RU  18209.94317406 +.00004551 +00000-0 +41795-3 0  9995
2 34217 098.2088 203.3342 0014686 132.9757 227.2697 14.95295050573820
1 34220U 01049PQ  15357.22596365  .00003417  00000-0  13459-3 0  9994
2 34220  98.1773 348.9789 0008434  86.5561 273.6640 15.26385840629193
1 34221U 01049PR  18211.35695654 -.00000437  00000-0 -26182-4 0  9991
2 34221  98.5445 178.3415 0074502 320.2537  39.3239 15.01144608882870
1 34223U 02024H   18212.88946408 +.00000277 +00000-0 +19591-3 0  9997
2 34223 099.1826 195.8760 0133086 024.2018 336.5322 14.01919632808078
1 34224U 06006AP  18211.22301841  .00000313  00000-0  85032-3 0  9999
2 34224  52.1117 160.6441 5027056 140.8714 269.2838  5.26848695197026
1 34226U 06006AR  18049.49311893  .00002163  00000-0  19082-2 0  9993
2 34226  51.6700 110.1122 5027033 256.1729  45.1464  5.41300501191923
1 34227U 06006AS  18208.02959260 +.00000096 +00000-0 +54805-3 0  9992
2 34227 052.0115 070.5453 4915845 233.4243 333.1896 05.38472954200591
1 34228U 06006AT  11337.07599237 +.00086168 +00000-0 +30133-1 0  9998
2 34228 051.8664 211.9560 4577633 170.6514 354.1589 06.25036147076185
1 34229U 06006AU  18009.32360739  .00006549  00000-0  28097-2 0  9995
2 34229  51.4167 112.1454 4505833 210.6617 112.9037  6.34739125204789
1 34230U 06006AV  18106.15916284  .00000185  00000-0  20302-3 0  9990
2 34230  51.4138 119.3291 5051028 235.3600  66.3577  5.32398254193820
1 34231U 06006AW  17161.55389459 +.00001986 +00000-0 +94502-2 0  9995
2 34231 052.2249 251.6724 5061846 192.5310 150.8561 05.12434176167415
1 34232U 06006AX  10188.84941953 +.00027218 +00000-0 +13005-1 0  9997
2 34232 051.6387 013.0302 5062914 165.2742 218.0214 05.42263510042517
1 34233U 06006AY  18087.46882538  .00000741  00000-0  11975-2 0  9992
2 34233  52.1877 137.1998 4867383 157.4242 234.6232  5.58371902194061
1 34234U 06006AZ  18212.31973784  .00001394  00000-0  77148-3 0  9991
2 34234  51.5486 185.5862 4830702 117.0704 299.8050  5.78220280206449
1 34235U 06006BA  18044.61826835  .00000515  00000-0  77905-3 0  9997
2 34235  51.6925 152.2920 5030396 221.8249  86.3350  5.36125851189922
1 34236U 06006BB  17247.12820478  .00000422  00000-0  34620-3 0  9999
2 34236  51.6575 160.2766 5004110 217.4451  94.2305  5.48815189183400
1 34237U 06006BC  14231.07464448 +.00002331 +00000-0 +35286-2 0  9994
2 34237 051.7761 025.4036 4999229 231.5630 072.0905 05.39101773120194
1 34238U 06006BD  18111.61863099  .00000795  00000-0  14402-2 0  9990
2 34238  51.6927 222.5978 5083257 182.7204 173.3308  5.24195058188596
1 34239U 06006BE  18210.50359411 +.00004013 +00000-0 +98265-2 0  9993
2 34239 050.4932 260.9619 2314194 210.4236 133.9563 09.77400222359708
1 34241U 06006BG  18191.33728624 -.00000294 +00000-0 -76810-3 0  9993
2 34241 051.8097 078.9370 4952297 261.2721 319.4077 05.35822368100452
1 34242U 06006BH  18211.17787479  .00000005  00000-0  00000+0 0  9994
2 34242  54.6800 140.3554 4847471 129.8195 284.0959  4.98485631192414
1 34243U 06006BJ  18210.10325308 -.00000156  00000-0 -11477-3 0  9999
2 34243  51.6486  71.9894 5089275 290.2788  23.3599  5.28467317204738
1 34244U 06006BK  18037.45010581  .00003510  00000-0  62069-2 0  9996
2 34244  51.9146  97.7482 4899581 206.3974 118.8597  5.52497676201752
1 34245U 06006BL  12141.60882022 +.00013363 +00000-0 +13065-1 0  9999
2 34245 051.8877 215.4324 4797855 176.0028 355.5973 05.76387557087708
1 34246U 06006BM  18212.14519647 -.00000152  00000-0 -10227-3 0  9997
2 34246  51.5262 115.1404 4595820 170.1682 203.5073  6.10643762218215
1 34247U 06006BN  18212.08613714  .00000380  00000-0  84138-3 0  9994
2 34247  52.1483  68.3481 4964369 210.9580 346.9395  5.40790145206531
1 34248U 06006BP  18213.20867780  .00001021  00000-0  44456-3 0  9996
2 34248  51.6213 154.6855 4881967 125.5597 290.3307  5.72351731215761
1 34250U 06006BR  18204.25193877 -.00000161 +00000-0 -15548-3 0  9999
2 34250 051.7054 112.5607 5086924 249.3127 050.5363 05.24839220203082
1 34252U 06006BT  18205.30187903 -.00000076 +00000-0 -23134-4 0  9997
2 34252 051.6438 097.0883 5117902 270.8549 033.5431 05.23005858201806
1 34254U 06006BV  18208.89368147 +.00004054 +00000-0 +30589-2 0  9995
2 34254 051.6165 066.3172 4589231 201.2675 131.0367 06.13733699211084
1 34255U 06006BW  16102.88749763  .00002501  00000-0  39781-2 0  9991
2 34255  52.0959 325.6212 4872235 139.8572 268.9364  5.57912728152516
1 34256U 06006BX  18211.52382125  .00000051  00000-0  15957-3 0  9999
2 34256  51.8864 251.2810 5088101 111.1798  12.9661  5.17451418190319
1 34257U 06006BY  18211.30002257  .00000073  00000-0  16509-3 0  9999
2 34257  52.0982 218.1474 5062356 103.2918   4.9068  5.21416032193977
1 34258U 06006BZ  18212.30488788  .00000543  00000-0  14310-2 0  9997
2 34258  51.8994 178.9419 5057442 165.9929 353.4781  5.22655827193812
1 34260U 06006CB  18182.29036385 +.00000777 +00000-0 +43451-2 0  9993
2 34260 051.9299 164.0182 4887960 169.1055 207.5122 05.35354671203118
1 34261U 06006CC  18211.50214545 +.00012991 +00000-0 +66823-2 0  9996
2 34261 052.1138 030.3997 4522519 134.1944 273.3814 06.29721354108324
1 34262U 06006CD  18212.29105174 -.00000074  00000-0 -22840-3 0  9994
2 34262  51.8201 194.0988 5030537 166.7035 214.2914  5.21204269190538
1 34263U 06006CE  18212.91012526 +.00001245 +00000-0 +83804-3 0  9998
2 34263 051.5893 194.6436 4797349 103.6808 312.4300 05.81164894078984
1 34270U 93036LQ  18212.86975173 +.00000385 +00000-0 +99855-4 0  9993
2 34270 074.0168 010.4446 0060909 103.2161 257.5805 14.52087252499494
1 34271U 93036LR  18212.90763247 +.00000480 +00000-0 +16285-3 0  9997
2 34271 074.0337 180.8673 0039668 180.7329 210.2335 14.38906150493434
1 34273U 93036LT  18212.82662659 +.00000248 +00000-0 +77759-4 0  9991
2 34273 074.0413 094.0213 0020325 162.5206 321.8067 14.45560462496365
1 34274U 93036LU  18212.63849483 +.00000318 +00000-0 +97566-4 0  9999
2 34274 074.0111 090.2909 0031723 163.1656 225.6508 14.45443284496702
1 34275U 93036LV  18213.51691959  .00000772  00000-0  21438-3 0  9999
2 34275  74.0333 111.8078 0013859 123.0742 303.8192 14.48130837496301
1 34276U 93036LW  18212.81722998 +.00000213 +00000-0 +68392-4 0  9991
2 34276 074.0265 085.4730 0027969 168.4438 322.5004 14.45035369496423
